ONEWEB-0379             
1 49305U 21090AC  25157.85328843  .00000145  00000+0  35681-3 0  9999
2 49305  87.9039   4.3757 0001657  87.5103 272.6217 13.14501897178257
ONEWEB-0380             
1 49306U 21090AD  25157.89199184  .00000075  00000+0  15584-3 0  9990
2 49306  87.9231  19.5844 0001888  77.6369 282.4975 13.19727017176928
ONEWEB-0381             
1 49307U 21090AE  25157.78343382  .00000189  00000+0  43273-3 0  9992
2 49307  87.9260 349.2044 0001787  81.3297 278.8039 13.20771621180271
ONEWEB-0382             
1 49308U 21090AF  25157.77079812  .00000131  00000+0  29140-3 0  9990
2 49308  87.9259 349.2016 0001584  80.4730 279.6582 13.20771672180263
ONEWEB-0383             
1 49309U 21090AG  25157.84694873  .00000020  00000+0  20001-4 0  9994
2 49309  87.9036   4.3575 0001573  87.2585 272.8724 13.14503816178285
ONEWEB-0384             
1 49310U 21090AH  25157.76698948  .00000127  00000+0  27948-3 0  9998
2 49310  87.9262 349.2191 0001394  77.1429 282.9860 13.20784971180274
ONEWEB-0385             
1 49311U 21090AJ  25158.21745680  .00000039  00000+0  63282-4 0  9990
2 49311  87.9260 349.1304 0001692  86.2359 273.8967 13.20771395181625
ONEWEB-0386             
1 49312U 21090AK  25157.78026656  .00000149  00000+0  33333-3 0  9992
2 49312  87.9253 349.1882 0001538  84.9477 275.1832 13.20771228180264
